start=new Date('2022-07-22T00:00:00.000Z').valueOf();
sats=[{"PERIOD":"95.593","APOAPSIS":"548.283","PERIAPSIS":"546.213","MEAN_ANOMALY":"291.5921","SITE":"AFETR","EPOCH":"2022-07-21T15:05:09.138336","BSTAR":"-0.00012049000000","EPHEMERIS_TYPE":"0","COUNTRY_CODE":"US","CLASSIFICATION_TYPE":"U","OBJECT_ID":"2020-001AF","GP_ID":"208601052","ECCENTRICITY":"0.00014950","ELEMENT_SET_NO":"999","NORAD_CAT_ID":"44943","TIME_SYSTEM":"UTC","TLE_LINE1":"1 44943U 20001AF  22202.62857799 -.00002075  00000-0 -12049-3 0  9993","MEAN_ELEMENT_THEORY":"SGP4","CENTER_NAME":"EARTH","DECAY_DATE":null,"LAUNCH_DATE":"2020-01-07","MEAN_MOTION":"15.06388805","MEAN_MOTION_DOT":"-0.00002075","OBJECT_TYPE":"PAYLOAD","OBJECT_NAME":"STARLINK-1100","MEAN_MOTION_DDOT":"0.0000000000000","SEMIMAJOR_AXIS":"6925.383","RA_OF_ASC_NODE":"164.0343","REF_FRAME":"TEME","RCS_SIZE":"LARGE","INCLINATION":"53.0539","TLE_LINE2":"2 44943  53.0539 164.0343 0001495  68.5227 291.5921 15.06388805140100","FILE":"3519265","ARG_OF_PERICENTER":"68.5227","REV_AT_EPOCH":"14010"},{"EPHEMERIS_TYPE":"0","OBJECT_ID":"2020-001AG","CLASSIFICATION_TYPE":"U","COUNTRY_CODE":"US","APOAPSIS":"548.449","PERIOD":"95.593","MEAN_ANOMALY":"291.4113","PERIAPSIS":"546.022","SITE":"AFETR","BSTAR":"0.00000016589000","EPOCH":"2022-07-21T14:38:37.467168","TLE_LINE1":"1 44944U 20001AG  22202.61015587 -.00000279  00000-0  16589-6 0  9993","MEAN_ELEMENT_THEORY":"SGP4","GP_ID":"208601302","ELEMENT_SET_NO":"999","ECCENTRICITY":"0.00017520","NORAD_CAT_ID":"44944","TIME_SYSTEM":"UTC","REF_FRAME":"TEME","RA_OF_ASC_NODE":"164.1173","SEMIMAJOR_AXIS":"6925.371","DECAY_DATE":null,"CENTER_NAME":"EARTH","MEAN_MOTION_DOT":"-0.00000279","LAUNCH_DATE":"2020-01-07","MEAN_MOTION":"15.06392759","OBJECT_TYPE":"PAYLOAD","MEAN_MOTION_DDOT":"0.0000000000000","OBJECT_NAME":"STARLINK-1108","ARG_OF_PERICENTER":"68.7063","REV_AT_EPOCH":"14010","RCS_SIZE":"LARGE","INCLINATION":"53.0549","TLE_LINE2":"2 44944  53.0549 164.1173 0001752  68.7063 291.4113 15.06392759140105","FILE":"3519265"},{"INCLINATION":"53.0536","RCS_SIZE":"LARGE","FILE":"3519215","TLE_LINE2":"2 44945  53.0536 165.4628 0001865  53.6130 306.5031 15.06407391140054","ARG_OF_PERICENTER":"53.6130","REV_AT_EPOCH":"14005","LAUNCH_DATE":"2020-01-07","MEAN_MOTION":"15.06407391","MEAN_MOTION_DOT":"0.00000099","CENTER_NAME":"EARTH","DECAY_DATE":null,"OBJECT_NAME":"STARLINK-1109","MEAN_MOTION_DDOT":"0.0000000000000","OBJECT_TYPE":"PAYLOAD","SEMIMAJOR_AXIS":"6925.326","REF_FRAME":"TEME","RA_OF_ASC_NODE":"165.4628","ELEMENT_SET_NO":"999","NORAD_CAT_ID":"44945","ECCENTRICITY":"0.00018650","TIME_SYSTEM":"UTC","GP_ID":"208581828","TLE_LINE1":"1 44945U 20001AH  22202.30790411  .00000099  00000-0  25538-4 0  9997","MEAN_ELEMENT_THEORY":"SGP4","PERIAPSIS":"545.899","MEAN_ANOMALY":"306.5031","PERIOD":"95.592","APOAPSIS":"548.482","BSTAR":"0.00002553800000","EPOCH":"2022-07-21T07:23:22.915104","SITE":"AFETR","COUNTRY_CODE":"US","CLASSIFICATION_TYPE":"U","OBJECT_ID":"2020-001AH","EPHEMERIS_TYPE":"0"},{"GP_ID":"208602792","NORAD_CAT_ID":"44946","ELEMENT_SET_NO":"999","TIME_SYSTEM":"UTC","ECCENTRICITY":"0.00016680","MEAN_ELEMENT_THEORY":"SGP4","TLE_LINE1":"1 44946U 20001AJ  22202.59269213  .00017043  00000-0  90897-3 0  9996","SITE":"AFETR","EPOCH":"2022-07-21T14:13:28.600032","BSTAR":"0.00090897000000","APOAPSIS":"521.292","PERIOD":"95.032","MEAN_ANOMALY":"340.4663","PERIAPSIS":"518.991","EPHEMERIS_TYPE":"0","CLASSIFICATION_TYPE":"U","OBJECT_ID":"2020-001AJ","COUNTRY_CODE":"US","TLE_LINE2":"2 44946  53.0037 150.0567 0001668  19.6393 340.4663 15.15276411140265","FILE":"3519265","RCS_SIZE":"LARGE","INCLINATION":"53.0037","REV_AT_EPOCH":"14026","ARG_OF_PERICENTER":"19.6393","OBJECT_TYPE":"PAYLOAD","MEAN_MOTION_DDOT":"0.0000000000000","OBJECT_NAME":"STARLINK-1110","DECAY_DATE":null,"CENTER_NAME":"EARTH","MEAN_MOTION_DOT":"0.00017043","LAUNCH_DATE":"2020-01-07","MEAN_MOTION":"15.15276411","REF_FRAME":"TEME","RA_OF_ASC_NODE":"150.0567","SEMIMAJOR_AXIS":"6898.277"},{"DECAY_DATE":null,"CENTER_NAME":"EARTH","MEAN_MOTION_DOT":"-0.00000143","LAUNCH_DATE":"2020-01-07","MEAN_MOTION":"15.06383371","OBJECT_TYPE":"PAYLOAD","MEAN_MOTION_DDOT":"0.0000000000000","OBJECT_NAME":"STARLINK-1116","RA_OF_ASC_NODE":"164.1699","REF_FRAME":"TEME","SEMIMAJOR_AXIS":"6925.400","RCS_SIZE":"LARGE","INCLINATION":"53.0555","TLE_LINE2":"2 44947  53.0555 164.1699 0001849  57.7852 302.3316 15.06383371140106","FILE":"3519265","ARG_OF_PERICENTER":"57.7852","REV_AT_EPOCH":"14010","APOAPSIS":"548.545","PERIOD":"95.593","MEAN_ANOMALY":"302.3316","PERIAPSIS":"545.984","SITE":"AFETR","EPOCH":"2022-07-21T14:17:23.520768","BSTAR":"0.00000930150000","EPHEMERIS_TYPE":"0","OBJECT_ID":"2020-001AK","CLASSIFICATION_TYPE":"U","COUNTRY_CODE":"US","GP_ID":"208601553","ELEMENT_SET_NO":"999","NORAD_CAT_ID":"44947","ECCENTRICITY":"0.00018490","TIME_SYSTEM":"UTC","TLE_LINE1":"1 44947U 20001AK  22202.59541112 -.00000143  00000-0  93015-5 0  9999","MEAN_ELEMENT_THEORY":"SGP4"},{"TLE_LINE2":"2 44949  53.0542 162.8679 0001780  76.6141 283.5047 15.06407486140141","FILE":"3519265","RCS_SIZE":"LARGE","INCLINATION":"53.0542","REV_AT_EPOCH":"14014","ARG_OF_PERICENTER":"76.6141","OBJECT_TYPE":"PAYLOAD","OBJECT_NAME":"STARLINK-1122","MEAN_MOTION_DDOT":"0.0000000000000","CENTER_NAME":"EARTH","DECAY_DATE":null,"LAUNCH_DATE":"2020-01-07","MEAN_MOTION":"15.06407486","MEAN_MOTION_DOT":"0.00000662","SEMIMAJOR_AXIS":"6925.326","RA_OF_ASC_NODE":"162.8679","REF_FRAME":"TEME","GP_ID":"208601803","ECCENTRICITY":"0.00017800","ELEMENT_SET_NO":"999","NORAD_CAT_ID":"44949","TIME_SYSTEM":"UTC","MEAN_ELEMENT_THEORY":"SGP4","TLE_LINE1":"1 44949U 20001AM  22202.88659711  .00000662  00000-0  63308-4 0  9994","SITE":"AFETR","EPOCH":"2022-07-21T21:16:41.990304","BSTAR":"0.00006330800000","PERIOD":"95.592","APOAPSIS":"548.423","PERIAPSIS":"545.958","MEAN_ANOMALY":"283.5047","EPHEMERIS_TYPE":"0","COUNTRY_CODE":"US","CLASSIFICATION_TYPE":"U","OBJECT_ID":"2020-001AM"},{"DECAY_DATE":null,"CENTER_NAME":"EARTH","MEAN_MOTION_DOT":"0.00016986","MEAN_MOTION":"15.10698920","LAUNCH_DATE":"2020-01-07","OBJECT_TYPE":"PAYLOAD","MEAN_MOTION_DDOT":"0.0000000000000","OBJECT_NAME":"STARLINK-1125","REF_FRAME":"TEME","RA_OF_ASC_NODE":"163.3821","SEMIMAJOR_AXIS":"6912.204","RCS_SIZE":"LARGE","INCLINATION":"53.0506","TLE_LINE2":"2 44950  53.0506 163.3821 0002183  38.7567 321.3580 15.10698920140083","FILE":"3518718","ARG_OF_PERICENTER":"38.7567","REV_AT_EPOCH":"14008","APOAPSIS":"535.578","PERIOD":"95.320","MEAN_ANOMALY":"321.3580","PERIAPSIS":"532.560","SITE":"AFETR","BSTAR":"0.00102900000000","EPOCH":"2022-07-21T07:20:40.317216","EPHEMERIS_TYPE":"0","CLASSIFICATION_TYPE":"U","OBJECT_ID":"2020-001AN","COUNTRY_CODE":"US","GP_ID":"208546198","ELEMENT_SET_NO":"999","NORAD_CAT_ID":"44950","TIME_SYSTEM":"UTC","ECCENTRICITY":"0.00021830","TLE_LINE1":"1 44950U 20001AN  22202.30602219  .00016986  00000-0  10290-2 0  9990","MEAN_ELEMENT_THEORY":"SGP4"},{"CENTER_NAME":"EARTH","DECAY_DATE":null,"MEAN_MOTION":"15.14957178","LAUNCH_DATE":"2020-01-07","MEAN_MOTION_DOT":"0.00014799","OBJECT_TYPE":"PAYLOAD","OBJECT_NAME":"STARLINK-1126","MEAN_MOTION_DDOT":"0.0000000000000","SEMIMAJOR_AXIS":"6899.246","RA_OF_ASC_NODE":"151.1121","REF_FRAME":"TEME","RCS_SIZE":"LARGE","INCLINATION":"53.0038","TLE_LINE2":"2 44951  53.0038 151.1121 0001611  12.2076 347.8954 15.14957178141535","FILE":"3519265","ARG_OF_PERICENTER":"12.2076","REV_AT_EPOCH":"14153","PERIOD":"95.052","APOAPSIS":"522.222","PERIAPSIS":"519.999","MEAN_ANOMALY":"347.8954","SITE":"AFETR","EPOCH":"2022-07-21T13:31:38.879616","BSTAR":"0.00079878000000","EPHEMERIS_TYPE":"0","COUNTRY_CODE":"US","OBJECT_ID":"2020-001AP","CLASSIFICATION_TYPE":"U","GP_ID":"208602293","ELEMENT_SET_NO":"999","NORAD_CAT_ID":"44951","TIME_SYSTEM":"UTC","ECCENTRICITY":"0.00016110","TLE_LINE1":"1 44951U 20001AP  22202.56364444  .00014799  00000-0  79878-3 0  9992","MEAN_ELEMENT_THEORY":"SGP4"},{"SEMIMAJOR_AXIS":"6925.315","RA_OF_ASC_NODE":"164.1488","REF_FRAME":"TEME","CENTER_NAME":"EARTH","DECAY_DATE":null,"LAUNCH_DATE":"2020-01-07","MEAN_MOTION":"15.06411012","MEAN_MOTION_DOT":"0.00002662","OBJECT_TYPE":"PAYLOAD","OBJECT_NAME":"STARLINK-1117","MEAN_MOTION_DDOT":"0.0000000000000","ARG_OF_PERICENTER":"59.3694","REV_AT_EPOCH":"14010","RCS_SIZE":"LARGE","INCLINATION":"53.0541","TLE_LINE2":"2 44952  53.0541 164.1488 0001534  59.3694 300.7446 15.06411012140106","FILE":"3519265","EPHEMERIS_TYPE":"0","COUNTRY_CODE":"US","OBJECT_ID":"2020-001AQ","CLASSIFICATION_TYPE":"U","PERIOD":"95.591","APOAPSIS":"548.242","PERIAPSIS":"546.117","MEAN_ANOMALY":"300.7446","SITE":"AFETR","EPOCH":"2022-07-21T14:27:58.032000","BSTAR":"0.00019745000000","TLE_LINE1":"1 44952U 20001AQ  22202.60275500  .00002662  00000-0  19745-3 0  9995","MEAN_ELEMENT_THEORY":"SGP4","GP_ID":"208601053","NORAD_CAT_ID":"44952","ELEMENT_SET_NO":"999","ECCENTRICITY":"0.00015340","TIME_SYSTEM":"UTC"},{"TLE_LINE1":"1 44953U 20001AR  22202.88565332 -.00000243  00000-0  25825-5 0  9993","MEAN_ELEMENT_THEORY":"SGP4","GP_ID":"208601303","NORAD_CAT_ID":"44953","ELEMENT_SET_NO":"999","ECCENTRICITY":"0.00012730","TIME_SYSTEM":"UTC","EPHEMERIS_TYPE":"0","OBJECT_ID":"2020-001AR","CLASSIFICATION_TYPE":"U","COUNTRY_CODE":"US","APOAPSIS":"548.111","PERIOD":"95.592","MEAN_ANOMALY":"283.0215","PERIAPSIS":"546.347","SITE":"AFETR","EPOCH":"2022-07-21T21:15:20.446848","BSTAR":"0.00000258250000","ARG_OF_PERICENTER":"77.0916","REV_AT_EPOCH":"14143","RCS_SIZE":"LARGE","INCLINATION":"53.0561","TLE_LINE2":"2 44953  53.0561 162.8623 0001273  77.0916 283.0215 15.06394989141436","FILE":"3519265","RA_OF_ASC_NODE":"162.8623","REF_FRAME":"TEME","SEMIMAJOR_AXIS":"6925.364","DECAY_DATE":null,"CENTER_NAME":"EARTH","MEAN_MOTION_DOT":"-0.00000243","LAUNCH_DATE":"2020-01-07","MEAN_MOTION":"15.06394989","OBJECT_TYPE":"PAYLOAD","MEAN_MOTION_DDOT":"0.0000000000000","OBJECT_NAME":"STARLINK-1124"}];
